NORAD_CAT_ID,OBJECT_NAME,OBJECT_TYPE,EPOCH,MEAN_MOTION,ECCENTRICITY,INCLINATION,RA_OF_ASC_NODE,ARG_OF_PERICENTER,MEAN_ANOMALY,BSTAR,MEAN_MOTION_DOT,MEAN_MOTION_DDOT,TLE_LINE0,TLE_LINE1,TLE_LINE2,SEMIMAJOR_AXIS,PERIOD,APOGEE,PERIGEE,DECAYED
52265.0,STARLINK-3740,PAYLOAD,2023-11-09 18:49:50,15.08857647,0.0002069,53.2167,328.9885,62.2156,297.9046,0.00011944,1.614e-05,0.0,0 STARLINK-3740,1 52265U 22041E   23313.78461251  .00001614  00000-0  11944-3 0  9999,2 52265  53.2167 328.9885 0002069  62.2156 297.9046 15.08857647 87124,6917.826,95.436,541.123,538.26,0.0
52265.0,STARLINK-3740,PAYLOAD,2023-11-10 04:22:09,15.08845265,0.0001367,53.2184,327.1997,86.704,273.4108,-0.00017557,-3.081e-05,0.0,0 STARLINK-3740,1 52265U 22041E   23314.18205281 -.00003081  00000-0 -17557-3 0  9991,2 52265  53.2184 327.1997 0001367  86.7040 273.4108 15.08845265 87188,6917.864,95.437,540.675,538.784,0.0
52265.0,STARLINK-3740,PAYLOAD,2023-11-10 07:32:55,15.0884651,0.000141,53.2171,326.6028,93.8102,266.3051,-0.00011741,-2.156e-05,0.0,0 STARLINK-3740,1 52265U 22041E   23314.31453040 -.00002156  00000-0 -11741-3 0  9995,2 52265  53.2171 326.6028 0001410  93.8102 266.3051 15.08846510 85988,6917.86,95.437,540.701,538.75,0.0
52265.0,STARLINK-3740,PAYLOAD,2023-11-11 07:23:42,15.08848656,0.0001404,53.2164,322.142,94.4288,265.6865,0.00030498,4.57e-05,0.0,0 STARLINK-3740,1 52265U 22041E   23315.30813075  .00004570  00000-0  30498-3 0  9993,2 52265  53.2164 322.1420 0001404  94.4288 265.6865 15.08848656 87353,6917.854,95.437,540.69,538.748,0.0
52265.0,STARLINK-3740,PAYLOAD,2023-11-12 04:03:43,15.08840045,0.0001416,53.2163,318.2762,94.6411,265.4743,0.00013713,1.895e-05,0.0,0 STARLINK-3740,1 52265U 22041E   23316.16925383  .00001895  00000-0  13713-3 0  9992,2 52265  53.2163 318.2762 0001416  94.6411 265.4743 15.08840045 87481,6917.88,95.438,540.725,538.766,0.0
52265.0,STARLINK-3740,PAYLOAD,2023-11-12 07:14:29,15.08842449,0.0001407,53.2163,317.6817,92.7787,267.3366,0.0001663,2.36e-05,0.0,0 STARLINK-3740,1 52265U 22041E   23316.30173309  .00002360  00000-0  16630-3 0  9990,2 52265  53.2163 317.6817 0001407  92.7787 267.3366 15.08842449 86289,6917.873,95.437,540.711,538.765,0.0
52265.0,STARLINK-3740,PAYLOAD,2023-11-12 16:46:48,15.08843583,0.0001417,53.2162,315.8978,89.1151,271.0004,0.00014662,2.047e-05,0.0,0 STARLINK-3740,1 52265U 22041E   23316.69917259  .00002047  00000-0  14662-3 0  9997,2 52265  53.2162 315.8978 0001417  89.1151 271.0004 15.08843583 86340,6917.869,95.437,540.715,538.754,0.0
52265.0,STARLINK-3740,PAYLOAD,2023-11-13 08:40:39,15.08854131,0.0001454,53.2165,312.9243,88.972,271.1439,0.00022194,3.247e-05,0.0,0 STARLINK-3740,1 52265U 22041E   23317.36156538  .00003247  00000-0  22194-3 0  9999,2 52265  53.2165 312.9243 0001454  88.9720 271.1439 15.08854131 87666,6917.837,95.437,540.708,538.696,0.0
52265.0,STARLINK-3740,PAYLOAD,2023-11-13 16:37:35,15.08845818,0.0001556,53.2171,311.4385,90.2155,269.9016,0.00011497,1.542e-05,0.0,0 STARLINK-3740,1 52265U 22041E   23317.69276838  .00001542  00000-0  11497-3 0  9991,2 52265  53.2171 311.4385 0001556  90.2155 269.9016 15.08845818 87719,6917.863,95.437,540.804,538.651,0.0
52265.0,STARLINK-3740,PAYLOAD,2023-11-14 03:45:17,15.08841089,0.0001924,53.2197,309.358,87.3451,272.7762,-0.00010753,-1.999e-05,0.0,0 STARLINK-3740,1 52265U 22041E   23318.15645271 -.00001999  00000-0 -10753-3 0  9996,2 52265  53.2197 309.3580 0001924  87.3451 272.7762 15.08841089 87788,6917.877,95.437,541.073,538.411,0.0
52265.0,STARLINK-3740,PAYLOAD,2023-11-14 10:06:50,15.08838037,0.0001672,53.2175,308.1651,79.2867,280.8314,1.5251e-05,-4.5e-07,0.0,0 STARLINK-3740,1 52265U 22041E   23318.42141387 -.00000045  00000-0  15251-4 0  9994,2 52265  53.2175 308.1651 0001672  79.2867 280.8314 15.08838037 86603,6917.886,95.438,540.908,538.595,0.0
52265.0,STARLINK-3740,PAYLOAD,2023-11-14 16:28:22,15.0883757,0.0001743,53.2183,306.9749,79.4041,280.7148,6.3076e-07,-2.78e-06,0.0,0 STARLINK-3740,1 52265U 22041E   23318.68637496 -.00000278  00000-0  63076-6 0  9991,2 52265  53.2183 306.9749 0001743  79.4041 280.7148 15.08837570 86640,6917.888,95.438,540.959,538.547,0.0
52265.0,STARLINK-3740,PAYLOAD,2023-11-15 06:46:50,15.08845834,0.0001634,53.2183,304.2984,79.9463,280.1714,0.00010985,1.461e-05,0.0,0 STARLINK-3740,1 52265U 22041E   23319.28253145  .00001461  00000-0  10985-3 0  9995,2 52265  53.2183 304.2984 0001634  79.9463 280.1714 15.08845834 87954,6917.863,95.437,540.858,538.597,0.0
52265.0,STARLINK-3740,PAYLOAD,2023-11-15 16:19:09,15.08845712,0.0001542,53.2173,302.5152,85.513,274.6038,7.1513e-05,8.5e-06,0.0,0 STARLINK-3740,1 52265U 22041E   23319.67997133  .00000850  00000-0  71513-4 0  9996,2 52265  53.2173 302.5152 0001542  85.5130 274.6038 15.08845712 86796,6917.863,95.437,540.795,538.661,0.0
52265.0,STARLINK-3740,PAYLOAD,2023-11-16 05:02:15,15.08839352,0.0001625,53.2184,300.136,83.4335,276.6843,0.00014385,2.002e-05,0.0,0 STARLINK-3740,1 52265U 22041E   23320.20989667  .00002002  00000-0  14385-3 0  9994,2 52265  53.2184 300.1360 0001625  83.4335 276.6843 15.08839352 88093,6917.882,95.438,540.872,538.623,0.0
52265.0,STARLINK-3740,PAYLOAD,2023-11-16 22:31:29,15.08840232,0.0001307,53.2165,296.869,84.1887,275.9254,0.00017388,2.48e-05,0.0,0 STARLINK-3740,1 52265U 22041E   23320.93853649  .00002480  00000-0  17388-3 0  9990,2 52265  53.2165 296.8690 0001307  84.1887 275.9254 15.08840232 86989,6917.88,95.438,540.649,538.841,0.0
52265.0,STARLINK-3740,PAYLOAD,2023-11-17 08:03:48,15.08846864,0.0001576,53.2177,295.0823,92.531,267.5863,0.00015475,2.176e-05,0.0,0 STARLINK-3740,1 52265U 22041E   23321.33597337  .00002176  00000-0  15475-3 0  9991,2 52265  53.2177 295.0823 0001576  92.5310 267.5863 15.08846864 88266,6917.859,95.437,540.815,538.634,0.0
52265.0,STARLINK-3740,PAYLOAD,2023-11-17 16:00:44,15.08838919,0.0001392,53.2163,293.5941,95.6622,264.4529,1.9795e-05,2.7e-07,0.0,0 STARLINK-3740,1 52265U 22041E   23321.66717725  .00000027  00000-0  19795-4 0  9995,2 52265  53.2163 293.5941 0001392  95.6622 264.4529 15.08838919 88314,6917.884,95.438,540.712,538.786,0.0
52265.0,STARLINK-3740,PAYLOAD,2023-11-18 07:54:35,15.08838884,0.000145,53.2173,290.6213,93.5352,266.5806,6.6093e-05,7.64e-06,0.0,0 STARLINK-3740,1 52265U 22041E   23322.32957934  .00000764  00000-0  66093-4 0  9998,2 52265  53.2173 290.6213 0001450  93.5352 266.5806 15.08838884 87194,6917.884,95.438,540.752,538.746,0.0
52265.0,STARLINK-3740,PAYLOAD,2023-11-19 04:34:36,15.08844853,0.0001507,53.2184,286.7555,95.8675,264.2489,7.9531e-05,9.78e-06,0.0,0 STARLINK-3740,1 52265U 22041E   23323.19069491  .00000978  00000-0  79531-4 0  9994,2 52265  53.2184 286.7555 0001507  95.8675 264.2489 15.08844853 88542,6917.866,95.437,540.773,538.688,0.0
52265.0,STARLINK-3740,PAYLOAD,2023-11-19 14:06:55,15.088381,0.0001526,53.2183,284.9713,94.3254,265.7913,0.00016188,2.289e-05,0.0,0 STARLINK-3740,1 52265U 22041E   23323.58813838  .00002289  00000-0  16188-3 0  9994,2 52265  53.2183 284.9713 0001526  94.3254 265.7913 15.08838100 87382,6917.886,95.438,540.807,538.696,0.0
52265.0,STARLINK-3740,PAYLOAD,2023-11-20 13:57:42,15.0884372,0.0001466,53.2183,280.5123,91.6241,268.4919,7.1224e-05,8.46e-06,0.0,0 STARLINK-3740,1 52265U 22041E   23324.58173624  .00000846  00000-0  71224-4 0  9997,2 52265  53.2183 280.5123 0001466  91.6241 268.4919 15.08843720 87535,6917.869,95.437,540.748,538.72,0.0
52265.0,STARLINK-3740,PAYLOAD,2023-11-21 04:16:10,15.08840622,0.00015,53.2183,277.837,99.022,261.0942,1.8509e-05,7e-08,0.0,0 STARLINK-3740,1 52265U 22041E   23325.17789960  .00000007  00000-0  18509-4 0  9995,2 52265  53.2183 277.8370 0001500  99.0220 261.0942 15.08840622 88844,6917.878,95.438,540.781,538.706,0.0
52265.0,STARLINK-3740,PAYLOAD,2023-11-22 05:42:20,15.08848902,0.0001607,53.2176,273.0795,103.7394,256.3777,0.00015029,2.105e-05,0.0,0 STARLINK-3740,1 52265U 22041E   23326.23773533  .00002105  00000-0  15029-3 0  9996,2 52265  53.2176 273.0795 0001607 103.7394 256.3777 15.08848902 89009,6917.853,95.437,540.83,538.606,0.0
52265.0,STARLINK-3740,PAYLOAD,2023-11-23 05:33:06,15.08858749,0.0001437,53.2166,268.6152,89.3029,270.8128,0.00042081,6.419e-05,0.0,0 STARLINK-3740,1 52265U 22041E   23327.23132959  .00006419  00000-0  42081-3 0  9998,2 52265  53.2166 268.6152 0001437  89.3029 270.8128 15.08858749 87931,6917.823,95.436,540.682,538.694,0.0
52265.0,STARLINK-3740,PAYLOAD,2023-11-23 19:51:36,15.08828731,0.0001092,53.2182,265.9402,96.4106,263.7011,-0.00022761,-3.907e-05,0.0,0 STARLINK-3740,1 52265U 22041E   23327.82750320 -.00003907  00000-0 -22761-3 0  9995,2 52265  53.2182 265.9402 0001092  96.4106 263.7011 15.08828731 89245,6917.915,95.438,540.535,539.024,0.0
52265.0,STARLINK-3740,PAYLOAD,2023-11-24 02:13:08,15.08834474,0.000207,53.2175,264.7488,130.2466,229.8707,-0.00013476,-2.432e-05,0.0,0 STARLINK-3740,1 52265U 22041E   23328.09245925 -.00002432  00000-0 -13476-3 0  9990,2 52265  53.2175 264.7488 0002070 130.2466 229.8707 15.08834474 89281,6917.897,95.438,541.194,538.33,0.0
52265.0,STARLINK-3740,PAYLOAD,2023-11-24 19:42:23,15.08836394,0.0001632,53.2175,261.4813,100.0564,260.0612,1.0672e-06,-2.71e-06,0.0,0 STARLINK-3740,1 52265U 22041E   23328.82110710 -.00000271  00000-0  10672-5 0  9999,2 52265  53.2175 261.4813 0001632 100.0564 260.0612 15.08836394 88176,6917.891,95.438,540.885,538.627,0.0
52265.0,STARLINK-3740,PAYLOAD,2023-11-25 05:14:42,15.08852592,0.0001503,53.2163,259.6949,101.7523,258.3638,0.00043741,6.683e-05,0.0,0 STARLINK-3740,1 52265U 22041E   23329.21854294  .00006683  00000-0  43741-3 0  9998,2 52265  53.2163 259.6949 0001503 101.7523 258.3638 15.08852592 88235,6917.842,95.437,540.747,538.667,0.0
52265.0,STARLINK-3740,PAYLOAD,2023-11-25 22:43:56,15.08855952,0.0001844,53.2172,256.4194,137.4389,222.6747,0.00051644,7.944e-05,0.0,0 STARLINK-3740,1 52265U 22041E   23329.94717827  .00007944  00000-0  51644-3 0  9990,2 52265  53.2172 256.4194 0001844 137.4389 222.6747 15.08855952 88346,6917.832,95.437,540.972,538.421,0.0
